STARLINK-30253
1 57525U 23115E   26061.16668981  .00803042  00000+0  28677-1 0  9993
2 57525  43.0030  44.1907 0001601 282.6436 287.3842 15.25542116  5764
